[{"OBJECT_NAME":"STARLINK-1954","OBJECT_ID":"2021-009H","EPOCH":"2026-03-09T23:20:25.352160","MEAN_MOTION":15.30849174,"ECCENTRICITY":0.00046184,"INCLINATION":53.0574,"RA_OF_ASC_NODE":8.8654,"ARG_OF_PERICENTER":103.3293,"MEAN_ANOMALY":256.8222,"EPHEMERIS_TYPE":0,"CLASSIFICATION_TYPE":"U","NORAD_CAT_ID":47555,"ELEMENT_SET_NO":999,"REV_AT_EPOCH":28100,"BSTAR":0.0022371791,"MEAN_MOTION_DOT":0.00067883,"MEAN_MOTION_DDOT":0},{"OBJECT_NAME":"STARLINK-30882","OBJECT_ID":"2023-178F","EPOCH":"2026-03-09T04:23:59.133120","MEAN_MOTION":15.30193601,"ECCENTRICITY":0.00010164,"INCLINATION":53.1606,"RA_OF_ASC_NODE":3.4445,"ARG_OF_PERICENTER":69.5386,"MEAN_ANOMALY":290.5724,"EPHEMERIS_TYPE":0,"CLASSIFICATION_TYPE":"U","NORAD_CAT_ID":58379,"ELEMENT_SET_NO":999,"REV_AT_EPOCH":12981,"BSTAR":4.1421836e-5,"MEAN_MOTION_DOT":8.68e-6,"MEAN_MOTION_DDOT":0}]
